[{"OBJECT_NAME":"STARLINK-5271","OBJECT_ID":"2022-141AP","EPOCH":"2026-03-09T22:09:12.800448","MEAN_MOTION":15.08840066,"ECCENTRICITY":0.00012061,"INCLINATION":53.2174,"RA_OF_ASC_NODE":353.0364,"ARG_OF_PERICENTER":81.4631,"MEAN_ANOMALY":278.6498,"EPHEMERIS_TYPE":0,"CLASSIFICATION_TYPE":"U","NORAD_CAT_ID":54194,"ELEMENT_SET_NO":999,"REV_AT_EPOCH":18603,"BSTAR":0.00012899367,"MEAN_MOTION_DOT":1.766e-5,"MEAN_MOTION_DDOT":0},{"OBJECT_NAME":"SL-14 DEB","OBJECT_ID":"1989-080G","EPOCH":"2026-03-09T15:08:26.583936","MEAN_MOTION":13.18681492,"ECCENTRICITY":0.0881405,"INCLINATION":82.6856,"RA_OF_ASC_NODE":122.8071,"ARG_OF_PERICENTER":209.368,"MEAN_ANOMALY":145.5064,"EPHEMERIS_TYPE":0,"CLASSIFICATION_TYPE":"U","NORAD_CAT_ID":20308,"ELEMENT_SET_NO":999,"REV_AT_EPOCH":70613,"BSTAR":0.0010519,"MEAN_MOTION_DOT":3.505e-5,"MEAN_MOTION_DDOT":0}]
